STARLINK-36785          
1 67853U 26034D   26068.47650456  .00310411  00000+0  15134-2 0  9998
2 67853  53.1585 212.3993 0001318 114.3429 245.7731 15.80973263  3909
STARLINK-36608          
1 67854U 26034E   26068.53897676  .00161618  00000+0  80538-3 0  9997
2 67854  53.1585 212.0765 0001225  81.8819 278.2342 15.80920201  3905
STARLINK-36838          
1 67855U 26034F   26068.47501390  .00239294  00000+0  11811-2 0  9999
2 67855  53.1582 212.3882 0001302 102.8263 257.2906 15.80901816  3903
STARLINK-36843          
1 67856U 26034G   26068.41028076  .00323669  00000+0  15768-2 0  9994
2 67856  53.1581 212.6946 0001539 129.8821 230.2337 15.80953739  3896
STARLINK-36828          
1 67857U 26034H   26068.53747498  .00139629  00000+0  69837-3 0  9992
2 67857  53.1582 212.0672 0001089  89.4503 270.6644 15.80910726  3917
STARLINK-36837          
1 67858U 26034J   26068.47275288  .00224824  00000+0  11091-2 0  9999
2 67858  53.1585 212.3729 0001401 128.7828 231.3320 15.80952581  3901
STARLINK-36393          
1 67859U 26034K   26068.40878456  .00309272  00000+0  15115-2 0  9991
2 67859  53.1586 212.6847 0000828 108.1925 251.9188 15.80923254  3892
STARLINK-35873          
1 67860U 26034L   26068.47125241  .00299338  00000+0  14607-2 0  9993
2 67860  53.1584 212.3629 0001212  84.7319 275.3842 15.80983657  3936
STARLINK-36325          
1 67861U 26034M   26068.47050226  .00276882  00000+0  13564-2 0  9994
2 67861  53.1586 212.3581 0001155  94.8002 265.3153 15.80959674  3906
STARLINK-36332          
1 67862U 26034N   26068.46975713  .00112754  00000+0  56693-3 0  9999
2 67862  53.1582 212.3532 0001439  81.6875 278.4311 15.80889749  3902
STARLINK-36835          
1 67863U 26034P   26068.53222509  .00240861  00000+0  11857-2 0  9999
2 67863  53.1589 212.0300 0001224  73.2499 286.8658 15.80954663  3917
STARLINK-36831          
1 67864U 26034Q   26068.46824995  .00358068  00000+0  17326-2 0  9995
2 67864  53.1585 212.3424 0001007  82.4246 277.6891 15.81008969  3901
