CCSDS_OMM_VERS = 2.0
CREATION_DATE  = 
ORIGINATOR     = 

OBJECT_NAME    = STARLINK-36785
OBJECT_ID      = 2026-034D
CENTER_NAME    = EARTH
REF_FRAME      = TEME
TIME_SYSTEM    = UTC
MEAN_ELEMENT_THEORY = SGP/SGP4

EPOCH          = 2026-03-09T11:26:09.993984
MEAN_MOTION    = 15.80973263
ECCENTRICITY   = .0001318
INCLINATION    = 53.1585
RA_OF_ASC_NODE = 212.3993
ARG_OF_PERICENTER = 114.3429
MEAN_ANOMALY   = 245.7731

EPHEMERIS_TYPE = 0
CLASSIFICATION_TYPE = U
NORAD_CAT_ID   = 67853
ELEMENT_SET_NO = 999
REV_AT_EPOCH   = 390
BSTAR          = .15134E-2
MEAN_MOTION_DOT = .310411E-2
MEAN_MOTION_DDOT = 0

CCSDS_OMM_VERS = 2.0
CREATION_DATE  = 
ORIGINATOR     = 

OBJECT_NAME    = STARLINK-36608
OBJECT_ID      = 2026-034E
CENTER_NAME    = EARTH
REF_FRAME      = TEME
TIME_SYSTEM    = UTC
MEAN_ELEMENT_THEORY = SGP/SGP4

EPOCH          = 2026-03-09T12:56:07.592064
MEAN_MOTION    = 15.80920201
ECCENTRICITY   = .0001225
INCLINATION    = 53.1585
RA_OF_ASC_NODE = 212.0765
ARG_OF_PERICENTER = 81.8819
MEAN_ANOMALY   = 278.2342

EPHEMERIS_TYPE = 0
CLASSIFICATION_TYPE = U
NORAD_CAT_ID   = 67854
ELEMENT_SET_NO = 999
REV_AT_EPOCH   = 390
BSTAR          = .80538E-3
MEAN_MOTION_DOT = .161618E-2
MEAN_MOTION_DDOT = 0

CCSDS_OMM_VERS = 2.0
CREATION_DATE  = 
ORIGINATOR     = 

OBJECT_NAME    = STARLINK-36838
OBJECT_ID      = 2026-034F
CENTER_NAME    = EARTH
REF_FRAME      = TEME
TIME_SYSTEM    = UTC
MEAN_ELEMENT_THEORY = SGP/SGP4

EPOCH          = 2026-03-09T11:24:01.200960
MEAN_MOTION    = 15.80901816
ECCENTRICITY   = .0001302
INCLINATION    = 53.1582
RA_OF_ASC_NODE = 212.3882
ARG_OF_PERICENTER = 102.8263
MEAN_ANOMALY   = 257.2906

EPHEMERIS_TYPE = 0
CLASSIFICATION_TYPE = U
NORAD_CAT_ID   = 67855
ELEMENT_SET_NO = 999
REV_AT_EPOCH   = 390
BSTAR          = .11811E-2
MEAN_MOTION_DOT = .239294E-2
MEAN_MOTION_DDOT = 0

CCSDS_OMM_VERS = 2.0
CREATION_DATE  = 
ORIGINATOR     = 

OBJECT_NAME    = STARLINK-36843
OBJECT_ID      = 2026-034G
CENTER_NAME    = EARTH
REF_FRAME      = TEME
TIME_SYSTEM    = UTC
MEAN_ELEMENT_THEORY = SGP/SGP4

EPOCH          = 2026-03-09T09:50:48.257664
MEAN_MOTION    = 15.80953739
ECCENTRICITY   = .0001539
INCLINATION    = 53.1581
RA_OF_ASC_NODE = 212.6946
ARG_OF_PERICENTER = 129.8821
MEAN_ANOMALY   = 230.2337

EPHEMERIS_TYPE = 0
CLASSIFICATION_TYPE = U
NORAD_CAT_ID   = 67856
ELEMENT_SET_NO = 999
REV_AT_EPOCH   = 389
BSTAR          = .15768E-2
MEAN_MOTION_DOT = .323669E-2
MEAN_MOTION_DDOT = 0

CCSDS_OMM_VERS = 2.0
CREATION_DATE  = 
ORIGINATOR     = 

OBJECT_NAME    = STARLINK-36828
OBJECT_ID      = 2026-034H
CENTER_NAME    = EARTH
REF_FRAME      = TEME
TIME_SYSTEM    = UTC
MEAN_ELEMENT_THEORY = SGP/SGP4

EPOCH          = 2026-03-09T12:53:57.838272
MEAN_MOTION    = 15.80910726
ECCENTRICITY   = .0001089
INCLINATION    = 53.1582
RA_OF_ASC_NODE = 212.0672
ARG_OF_PERICENTER = 89.4503
MEAN_ANOMALY   = 270.6644

EPHEMERIS_TYPE = 0
CLASSIFICATION_TYPE = U
NORAD_CAT_ID   = 67857
ELEMENT_SET_NO = 999
REV_AT_EPOCH   = 391
BSTAR          = .69837E-3
MEAN_MOTION_DOT = .139629E-2
MEAN_MOTION_DDOT = 0

CCSDS_OMM_VERS = 2.0
CREATION_DATE  = 
ORIGINATOR     = 

OBJECT_NAME    = STARLINK-36837
OBJECT_ID      = 2026-034J
CENTER_NAME    = EARTH
REF_FRAME      = TEME
TIME_SYSTEM    = UTC
MEAN_ELEMENT_THEORY = SGP/SGP4

EPOCH          = 2026-03-09T11:20:45.848832
MEAN_MOTION    = 15.80952581
ECCENTRICITY   = .0001401
INCLINATION    = 53.1585
RA_OF_ASC_NODE = 212.3729
ARG_OF_PERICENTER = 128.7828
MEAN_ANOMALY   = 231.3320

EPHEMERIS_TYPE = 0
CLASSIFICATION_TYPE = U
NORAD_CAT_ID   = 67858
ELEMENT_SET_NO = 999
REV_AT_EPOCH   = 390
BSTAR          = .11091E-2
MEAN_MOTION_DOT = .224824E-2
MEAN_MOTION_DDOT = 0

CCSDS_OMM_VERS = 2.0
CREATION_DATE  = 
ORIGINATOR     = 

OBJECT_NAME    = STARLINK-36393
OBJECT_ID      = 2026-034K
CENTER_NAME    = EARTH
REF_FRAME      = TEME
TIME_SYSTEM    = UTC
MEAN_ELEMENT_THEORY = SGP/SGP4

EPOCH          = 2026-03-09T09:48:38.985984
MEAN_MOTION    = 15.80923254
ECCENTRICITY   = .0000828
INCLINATION    = 53.1586
RA_OF_ASC_NODE = 212.6847
ARG_OF_PERICENTER = 108.1925
MEAN_ANOMALY   = 251.9188

EPHEMERIS_TYPE = 0
CLASSIFICATION_TYPE = U
NORAD_CAT_ID   = 67859
ELEMENT_SET_NO = 999
REV_AT_EPOCH   = 389
BSTAR          = .15115E-2
MEAN_MOTION_DOT = .309272E-2
MEAN_MOTION_DDOT = 0

CCSDS_OMM_VERS = 2.0
CREATION_DATE  = 
ORIGINATOR     = 

OBJECT_NAME    = STARLINK-35873
OBJECT_ID      = 2026-034L
CENTER_NAME    = EARTH
REF_FRAME      = TEME
TIME_SYSTEM    = UTC
MEAN_ELEMENT_THEORY = SGP/SGP4

EPOCH          = 2026-03-09T11:18:36.208224
MEAN_MOTION    = 15.80983657
ECCENTRICITY   = .0001212
INCLINATION    = 53.1584
RA_OF_ASC_NODE = 212.3629
ARG_OF_PERICENTER = 84.7319
MEAN_ANOMALY   = 275.3842

EPHEMERIS_TYPE = 0
CLASSIFICATION_TYPE = U
NORAD_CAT_ID   = 67860
ELEMENT_SET_NO = 999
REV_AT_EPOCH   = 393
BSTAR          = .14607E-2
MEAN_MOTION_DOT = .299338E-2
MEAN_MOTION_DDOT = 0

CCSDS_OMM_VERS = 2.0
CREATION_DATE  = 
ORIGINATOR     = 

OBJECT_NAME    = STARLINK-36325
OBJECT_ID      = 2026-034M
CENTER_NAME    = EARTH
REF_FRAME      = TEME
TIME_SYSTEM    = UTC
MEAN_ELEMENT_THEORY = SGP/SGP4

EPOCH          = 2026-03-09T11:17:31.395264
MEAN_MOTION    = 15.80959674
ECCENTRICITY   = .0001155
INCLINATION    = 53.1586
RA_OF_ASC_NODE = 212.3581
ARG_OF_PERICENTER = 94.8002
MEAN_ANOMALY   = 265.3153

EPHEMERIS_TYPE = 0
CLASSIFICATION_TYPE = U
NORAD_CAT_ID   = 67861
ELEMENT_SET_NO = 999
REV_AT_EPOCH   = 390
BSTAR          = .13564E-2
MEAN_MOTION_DOT = .276882E-2
MEAN_MOTION_DDOT = 0

CCSDS_OMM_VERS = 2.0
CREATION_DATE  = 
ORIGINATOR     = 

OBJECT_NAME    = STARLINK-36332
OBJECT_ID      = 2026-034N
CENTER_NAME    = EARTH
REF_FRAME      = TEME
TIME_SYSTEM    = UTC
MEAN_ELEMENT_THEORY = SGP/SGP4

EPOCH          = 2026-03-09T11:16:27.016032
MEAN_MOTION    = 15.80889749
ECCENTRICITY   = .0001439
INCLINATION    = 53.1582
RA_OF_ASC_NODE = 212.3532
ARG_OF_PERICENTER = 81.6875
MEAN_ANOMALY   = 278.4311

EPHEMERIS_TYPE = 0
CLASSIFICATION_TYPE = U
NORAD_CAT_ID   = 67862
ELEMENT_SET_NO = 999
REV_AT_EPOCH   = 390
BSTAR          = .56693E-3
MEAN_MOTION_DOT = .112754E-2
MEAN_MOTION_DDOT = 0

CCSDS_OMM_VERS = 2.0
CREATION_DATE  = 
ORIGINATOR     = 

OBJECT_NAME    = STARLINK-36835
OBJECT_ID      = 2026-034P
CENTER_NAME    = EARTH
REF_FRAME      = TEME
TIME_SYSTEM    = UTC
MEAN_ELEMENT_THEORY = SGP/SGP4

EPOCH          = 2026-03-09T12:46:24.247776
MEAN_MOTION    = 15.80954663
ECCENTRICITY   = .0001224
INCLINATION    = 53.1589
RA_OF_ASC_NODE = 212.0300
ARG_OF_PERICENTER = 73.2499
MEAN_ANOMALY   = 286.8658

EPHEMERIS_TYPE = 0
CLASSIFICATION_TYPE = U
NORAD_CAT_ID   = 67863
ELEMENT_SET_NO = 999
REV_AT_EPOCH   = 391
BSTAR          = .11857E-2
MEAN_MOTION_DOT = .240861E-2
MEAN_MOTION_DDOT = 0

CCSDS_OMM_VERS = 2.0
CREATION_DATE  = 
ORIGINATOR     = 

OBJECT_NAME    = STARLINK-36831
OBJECT_ID      = 2026-034Q
CENTER_NAME    = EARTH
REF_FRAME      = TEME
TIME_SYSTEM    = UTC
MEAN_ELEMENT_THEORY = SGP/SGP4

EPOCH          = 2026-03-09T11:14:16.795680
MEAN_MOTION    = 15.81008969
ECCENTRICITY   = .0001007
INCLINATION    = 53.1585
RA_OF_ASC_NODE = 212.3424
ARG_OF_PERICENTER = 82.4246
MEAN_ANOMALY   = 277.6891

EPHEMERIS_TYPE = 0
CLASSIFICATION_TYPE = U
NORAD_CAT_ID   = 67864
ELEMENT_SET_NO = 999
REV_AT_EPOCH   = 390
BSTAR          = .17326E-2
MEAN_MOTION_DOT = .358068E-2
MEAN_MOTION_DDOT = 0

